{
  "updatedAt": "2026-03-20T16:26:01.420Z",
  "entries": {
    "snusat-2-43782": {
      "fetchedAt": "2026-03-20T16:26:01.420Z",
      "fleetEntry": {
        "id": "snusat-2-43782",
        "name": "SNUSAT-2",
        "englishName": "SNUSAT-2",
        "domesticName": "SNUSAT-2",
        "color": "#f78fb3",
        "norad": "43782",
        "orbitClass": "leo",
        "orbitLabel": "LEO SSO",
        "missionType": "technology",
        "missionLabel": "기술실증/학술",
        "operationalStatus": "비현역",
        "objectId": "2018-099AA",
        "launchDate": "2018-12-03",
        "sourceDate": "2026-03-20",
        "sourceLabel": "Space-Track cached GP",
        "omm": {
          "CCSDS_OMM_VERS": "3.0",
          "COMMENT": "GENERATED VIA SPACE-TRACK.ORG API",
          "CREATION_DATE": "2026-03-20T14:36:41",
          "ORIGINATOR": "18 SPCS",
          "OBJECT_NAME": "SNUSAT-2",
          "OBJECT_ID": "2018-099AA",
          "CENTER_NAME": "EARTH",
          "REF_FRAME": "TEME",
          "TIME_SYSTEM": "UTC",
          "MEAN_ELEMENT_THEORY": "SGP4",
          "EPOCH": "2026-03-20T09:29:22.545312",
          "MEAN_MOTION": 15.20357301,
          "ECCENTRICITY": 0.000924,
          "INCLINATION": 97.417,
          "RA_OF_ASC_NODE": 134.1882,
          "ARG_OF_PERICENTER": 241.3502,
          "MEAN_ANOMALY": 118.6804,
          "EPHEMERIS_TYPE": 0,
          "CLASSIFICATION_TYPE": "U",
          "NORAD_CAT_ID": 43782,
          "ELEMENT_SET_NO": 999,
          "REV_AT_EPOCH": 39953,
          "BSTAR": 0.00026858,
          "MEAN_MOTION_DOT": 0.00005783,
          "MEAN_MOTION_DDOT": 0,
          "SEMIMAJOR_AXIS": "6882.899",
          "PERIOD": "94.715",
          "APOAPSIS": "511.124",
          "PERIAPSIS": "498.404",
          "OBJECT_TYPE": "PAYLOAD",
          "RCS_SIZE": "SMALL",
          "COUNTRY_CODE": "SKOR",
          "LAUNCH_DATE": "2018-12-03",
          "SITE": "AFWTR",
          "DECAY_DATE": null,
          "FILE": "5093331",
          "GP_ID": "316569001",
          "TLE_LINE0": "0 SNUSAT-2",
          "TLE_LINE1": "1 43782U 18099AA  26079.39539983  .00005783  00000-0  26858-3 0  9999",
          "TLE_LINE2": "2 43782  97.4170 134.1882 0009240 241.3502 118.6804 15.20357301399537"
        }
      }
    },
    "geo-kompsat-2a-43823": {
      "fetchedAt": "2026-03-20T16:26:01.420Z",
      "fleetEntry": {
        "id": "geo-kompsat-2a-43823",
        "name": "GEO-KOMPSAT-2A",
        "englishName": "GEO-KOMPSAT-2A",
        "domesticName": "GEO-KOMPSAT-2A",
        "color": "#e98fb0",
        "norad": "43823",
        "orbitClass": "geo",
        "orbitLabel": "GEO",
        "missionType": "earth-observation",
        "missionLabel": "기상·해양 관측",
        "operationalStatus": "비현역",
        "objectId": "2018-100A",
        "launchDate": "2018-12-04",
        "sourceDate": "2026-03-20",
        "sourceLabel": "Space-Track cached GP",
        "omm": {
          "CCSDS_OMM_VERS": "3.0",
          "COMMENT": "GENERATED VIA SPACE-TRACK.ORG API",
          "CREATION_DATE": "2026-03-20T14:36:41",
          "ORIGINATOR": "18 SPCS",
          "OBJECT_NAME": "GEO-KOMPSAT-2A",
          "OBJECT_ID": "2018-100A",
          "CENTER_NAME": "EARTH",
          "REF_FRAME": "TEME",
          "TIME_SYSTEM": "UTC",
          "MEAN_ELEMENT_THEORY": "SGP4",
          "EPOCH": "2026-03-20T12:17:59.166240",
          "MEAN_MOTION": 1.00274171,
          "ECCENTRICITY": 0.0001313,
          "INCLINATION": 0.0482,
          "RA_OF_ASC_NODE": 8.7501,
          "ARG_OF_PERICENTER": 34.333,
          "MEAN_ANOMALY": 87.6928,
          "EPHEMERIS_TYPE": 0,
          "CLASSIFICATION_TYPE": "U",
          "NORAD_CAT_ID": 43823,
          "ELEMENT_SET_NO": 999,
          "REV_AT_EPOCH": 2674,
          "BSTAR": 0,
          "MEAN_MOTION_DOT": -0.00000341,
          "MEAN_MOTION_DDOT": 0,
          "SEMIMAJOR_AXIS": "42164.063",
          "PERIOD": "1436.063",
          "APOAPSIS": "35791.464",
          "PERIAPSIS": "35780.392",
          "OBJECT_TYPE": "PAYLOAD",
          "RCS_SIZE": "LARGE",
          "COUNTRY_CODE": "SKOR",
          "LAUNCH_DATE": "2018-12-04",
          "SITE": "FRGUI",
          "DECAY_DATE": null,
          "FILE": "5093332",
          "GP_ID": "316569520",
          "TLE_LINE0": "0 GEO-KOMPSAT-2A",
          "TLE_LINE1": "1 43823U 18100A   26079.51249035 -.00000341  00000-0  00000+0 0  9991",
          "TLE_LINE2": "2 43823   0.0482   8.7501 0001313  34.3330  87.6928  1.00274171 26743"
        }
      }
    },
    "geo-kompsat-2b-45246": {
      "fetchedAt": "2026-03-20T16:26:01.420Z",
      "fleetEntry": {
        "id": "geo-kompsat-2b-45246",
        "name": "GEO-KOMPSAT-2B",
        "englishName": "GEO-KOMPSAT-2B",
        "domesticName": "GEO-KOMPSAT-2B",
        "color": "#c7ceea",
        "norad": "45246",
        "orbitClass": "geo",
        "orbitLabel": "GEO",
        "missionType": "earth-observation",
        "missionLabel": "기상·해양 관측",
        "operationalStatus": "비현역",
        "objectId": "2020-013B",
        "launchDate": "2020-02-18",
        "sourceDate": "2026-03-20",
        "sourceLabel": "Space-Track cached GP",
        "omm": {
          "CCSDS_OMM_VERS": "3.0",
          "COMMENT": "GENERATED VIA SPACE-TRACK.ORG API",
          "CREATION_DATE": "2026-03-20T14:36:41",
          "ORIGINATOR": "18 SPCS",
          "OBJECT_NAME": "GEO-KOMPSAT-2B",
          "OBJECT_ID": "2020-013B",
          "CENTER_NAME": "EARTH",
          "REF_FRAME": "TEME",
          "TIME_SYSTEM": "UTC",
          "MEAN_ELEMENT_THEORY": "SGP4",
          "EPOCH": "2026-03-20T12:17:59.166240",
          "MEAN_MOTION": 1.00273343,
          "ECCENTRICITY": 0.0001582,
          "INCLINATION": 0.0548,
          "RA_OF_ASC_NODE": 331.0469,
          "ARG_OF_PERICENTER": 343.0657,
          "MEAN_ANOMALY": 176.6638,
          "EPHEMERIS_TYPE": 0,
          "CLASSIFICATION_TYPE": "U",
          "NORAD_CAT_ID": 45246,
          "ELEMENT_SET_NO": 999,
          "REV_AT_EPOCH": 2239,
          "BSTAR": 0,
          "MEAN_MOTION_DOT": -0.00000341,
          "MEAN_MOTION_DDOT": 0,
          "SEMIMAJOR_AXIS": "42164.295",
          "PERIOD": "1436.075",
          "APOAPSIS": "35792.831",
          "PERIAPSIS": "35779.490",
          "OBJECT_TYPE": "PAYLOAD",
          "RCS_SIZE": "LARGE",
          "COUNTRY_CODE": "SKOR",
          "LAUNCH_DATE": "2020-02-18",
          "SITE": "FRGUI",
          "DECAY_DATE": null,
          "FILE": "5093356",
          "GP_ID": "316569320",
          "TLE_LINE0": "0 GEO-KOMPSAT-2B",
          "TLE_LINE1": "1 45246U 20013B   26079.51249035 -.00000341  00000-0  00000+0 0  9998",
          "TLE_LINE2": "2 45246   0.0548 331.0469 0001582 343.0657 176.6638  1.00273343 22396"
        }
      }
    },
    "koreasat-116-45920": {
      "fetchedAt": "2026-03-20T16:26:01.420Z",
      "fleetEntry": {
        "id": "koreasat-116-45920",
        "name": "KOREASAT 116",
        "englishName": "KOREASAT 116",
        "domesticName": "KOREASAT 116",
        "color": "#e98fb0",
        "norad": "45920",
        "orbitClass": "geo",
        "orbitLabel": "GEO",
        "missionType": "communications",
        "missionLabel": "상업 통신",
        "operationalStatus": "비현역",
        "objectId": "2020-048A",
        "launchDate": "2020-07-20",
        "sourceDate": "2026-03-20",
        "sourceLabel": "Space-Track cached GP",
        "omm": {
          "CCSDS_OMM_VERS": "3.0",
          "COMMENT": "GENERATED VIA SPACE-TRACK.ORG API",
          "CREATION_DATE": "2026-03-20T14:36:41",
          "ORIGINATOR": "18 SPCS",
          "OBJECT_NAME": "KOREASAT 116",
          "OBJECT_ID": "2020-048A",
          "CENTER_NAME": "EARTH",
          "REF_FRAME": "TEME",
          "TIME_SYSTEM": "UTC",
          "MEAN_ELEMENT_THEORY": "SGP4",
          "EPOCH": "2026-03-20T13:26:58.200576",
          "MEAN_MOTION": 1.00268764,
          "ECCENTRICITY": 0.0000903,
          "INCLINATION": 0.0172,
          "RA_OF_ASC_NODE": 173.5631,
          "ARG_OF_PERICENTER": 179.8148,
          "MEAN_ANOMALY": 142.6737,
          "EPHEMERIS_TYPE": 0,
          "CLASSIFICATION_TYPE": "U",
          "NORAD_CAT_ID": 45920,
          "ELEMENT_SET_NO": 999,
          "REV_AT_EPOCH": 2075,
          "BSTAR": 0,
          "MEAN_MOTION_DOT": 0,
          "MEAN_MOTION_DDOT": 0,
          "SEMIMAJOR_AXIS": "42165.579",
          "PERIOD": "1436.140",
          "APOAPSIS": "35791.251",
          "PERIAPSIS": "35783.636",
          "OBJECT_TYPE": "PAYLOAD",
          "RCS_SIZE": "LARGE",
          "COUNTRY_CODE": "SKOR",
          "LAUNCH_DATE": "2020-07-20",
          "SITE": "AFETR",
          "DECAY_DATE": null,
          "FILE": "5093374",
          "GP_ID": "316570545",
          "TLE_LINE0": "0 KOREASAT 116",
          "TLE_LINE1": "1 45920U 20048A   26079.56039584  .00000000  00000-0  00000+0 0  9997",
          "TLE_LINE2": "2 45920   0.0172 173.5631 0000903 179.8148 142.6737  1.00268764 20756"
        }
      }
    }
  }
}